[{"OBJECT_NAME":"HYPERVIEW 1G (RS66S)","OBJECT_ID":"2024-199AP","EPOCH":"2026-03-09T22:47:00.600864","MEAN_MOTION":15.58013725,"ECCENTRICITY":0.00064415,"INCLINATION":97.3083,"RA_OF_ASC_NODE":305.028,"ARG_OF_PERICENTER":283.1837,"MEAN_ANOMALY":76.87,"EPHEMERIS_TYPE":0,"CLASSIFICATION_TYPE":"U","NORAD_CAT_ID":61772,"ELEMENT_SET_NO":999,"REV_AT_EPOCH":11914,"BSTAR":0.0010158871,"MEAN_MOTION_DOT":0.00076691,"MEAN_MOTION_DDOT":0},{"OBJECT_NAME":"STARLINK-36625","OBJECT_ID":"2026-022W","EPOCH":"2026-03-09T22:00:01.999584","MEAN_MOTION":15.72387083,"ECCENTRICITY":0.00018037,"INCLINATION":97.2852,"RA_OF_ASC_NODE":102.9474,"ARG_OF_PERICENTER":69.2323,"MEAN_ANOMALY":67.0001,"EPHEMERIS_TYPE":0,"CLASSIFICATION_TYPE":"U","NORAD_CAT_ID":67668,"ELEMENT_SET_NO":999,"REV_AT_EPOCH":608,"BSTAR":-0.016379487,"MEAN_MOTION_DOT":-0.01887596,"MEAN_MOTION_DDOT":0}]
